STARLINK-32261          
1 61530U 24183X   26068.51612273 -.00001871  00000+0 -51077-4 0  9994
2 61530  53.1601 143.4170 0001202  82.6192 277.4945 15.30190043 79624
HAWK-11C                
1 62381U 24247E   26068.51221537  .00009223  00000+0  33290-3 0  9992
2 62381  45.0045 114.8762 0005900 329.7040  30.3502 15.28848020 67743
