[{"OBJECT_NAME":"STARLINK-32261","OBJECT_ID":"2024-183X","EPOCH":"2026-03-09T12:23:13.003872","MEAN_MOTION":15.30190043,"ECCENTRICITY":0.00012029,"INCLINATION":53.1601,"RA_OF_ASC_NODE":143.417,"ARG_OF_PERICENTER":82.6192,"MEAN_ANOMALY":277.4945,"EPHEMERIS_TYPE":0,"CLASSIFICATION_TYPE":"U","NORAD_CAT_ID":61530,"ELEMENT_SET_NO":999,"REV_AT_EPOCH":7962,"BSTAR":-5.1077391e-5,"MEAN_MOTION_DOT":-1.871e-5,"MEAN_MOTION_DDOT":0},{"OBJECT_NAME":"HAWK-11C","OBJECT_ID":"2024-247E","EPOCH":"2026-03-09T12:17:35.407968","MEAN_MOTION":15.2884802,"ECCENTRICITY":0.00059001,"INCLINATION":45.0045,"RA_OF_ASC_NODE":114.8762,"ARG_OF_PERICENTER":329.704,"MEAN_ANOMALY":30.3502,"EPHEMERIS_TYPE":0,"CLASSIFICATION_TYPE":"U","NORAD_CAT_ID":62381,"ELEMENT_SET_NO":999,"REV_AT_EPOCH":6774,"BSTAR":0.00033290115,"MEAN_MOTION_DOT":9.223e-5,"MEAN_MOTION_DDOT":0}]
